start=new Date('2023-01-28T00:00:00.000Z').valueOf();
sats=[{"REF_FRAME":"TEME","BSTAR":"0.00011493000000","EPHEMERIS_TYPE":"0","COUNTRY_CODE":"US","PERIAPSIS":"538.999","SEMIMAJOR_AXIS":"6917.883","OBJECT_NAME":"STARLINK-4610","RA_OF_ASC_NODE":"297.5708","TLE_LINE2":"2 53610  53.2164 297.5708 0001083  89.9674 270.1442 15.08839161 24010","SITE":"AFETR","DECAY_DATE":null,"FILE":"3763218","LAUNCH_DATE":"2022-08-28","MEAN_MOTION":"15.08839161","INCLINATION":"53.2164","APOAPSIS":"540.497","REV_AT_EPOCH":"2401","CENTER_NAME":"EARTH","ELEMENT_SET_NO":"999","PERIOD":"95.438","TLE_LINE1":"1 53610U 22104Y   23027.88009153  .00001542  00000-0  11493-3 0  9995","MEAN_MOTION_DDOT":"0.0000000000000","ECCENTRICITY":"0.00010830","ARG_OF_PERICENTER":"89.9674","EPOCH":"2023-01-27T21:07:19.908192","OBJECT_TYPE":"PAYLOAD","MEAN_ANOMALY":"270.1442","NORAD_CAT_ID":"53610","OBJECT_ID":"2022-104Y","MEAN_ELEMENT_THEORY":"SGP4","TIME_SYSTEM":"UTC","CLASSIFICATION_TYPE":"U","GP_ID":"223841482","RCS_SIZE":"LARGE","MEAN_MOTION_DOT":"0.00001542"},{"COUNTRY_CODE":"US","REF_FRAME":"TEME","BSTAR":"0.00005465500000","EPHEMERIS_TYPE":"0","PERIAPSIS":"538.817","SEMIMAJOR_AXIS":"6917.903","OBJECT_NAME":"STARLINK-4650","DECAY_DATE":null,"FILE":"3763218","RA_OF_ASC_NODE":"297.6401","TLE_LINE2":"2 53611  53.2186 297.6401 0001375 109.4864 250.6277 15.08832485 24133","SITE":"AFETR","APOAPSIS":"540.720","REV_AT_EPOCH":"2413","LAUNCH_DATE":"2022-08-28","MEAN_MOTION":"15.08832485","INCLINATION":"53.2186","MEAN_MOTION_DDOT":"0.0000000000000","ECCENTRICITY":"0.00013750","ARG_OF_PERICENTER":"109.4864","EPOCH":"2023-01-27T21:21:52.510176","CENTER_NAME":"EARTH","ELEMENT_SET_NO":"999","PERIOD":"95.438","TLE_LINE1":"1 53611U 22104Z   23027.89019109  .00000582  00000-0  54655-4 0  9990","OBJECT_ID":"2022-104Z","MEAN_ELEMENT_THEORY":"SGP4","TIME_SYSTEM":"UTC","OBJECT_TYPE":"PAYLOAD","MEAN_ANOMALY":"250.6277","NORAD_CAT_ID":"53611","CLASSIFICATION_TYPE":"U","RCS_SIZE":"LARGE","MEAN_MOTION_DOT":"0.00000582","GP_ID":"223840239"},{"OBJECT_ID":"2022-104AA","MEAN_ELEMENT_THEORY":"SGP4","TIME_SYSTEM":"UTC","OBJECT_TYPE":"PAYLOAD","MEAN_ANOMALY":"275.5402","NORAD_CAT_ID":"53612","MEAN_MOTION_DDOT":"0.0000000000000","ARG_OF_PERICENTER":"84.5724","ECCENTRICITY":"0.00011800","EPOCH":"2023-01-27T01:56:01.329216","CENTER_NAME":"EARTH","PERIOD":"95.438","ELEMENT_SET_NO":"999","TLE_LINE1":"1 53612U 22104AA  23027.08057094 -.00001372  00000-0 -68113-4 0  9991","RCS_SIZE":"LARGE","MEAN_MOTION_DOT":"-0.00001372","GP_ID":"223808561","CLASSIFICATION_TYPE":"U","PERIAPSIS":"538.935","SEMIMAJOR_AXIS":"6917.887","OBJECT_NAME":"STARLINK-4658","COUNTRY_CODE":"US","REF_FRAME":"TEME","BSTAR":"-0.00006811300000","EPHEMERIS_TYPE":"0","REV_AT_EPOCH":"2389","APOAPSIS":"540.568","LAUNCH_DATE":"2022-08-28","INCLINATION":"53.2188","MEAN_MOTION":"15.08837979","DECAY_DATE":null,"FILE":"3762956","RA_OF_ASC_NODE":"301.1095","SITE":"AFETR","TLE_LINE2":"2 53612  53.2188 301.1095 0001180  84.5724 275.5402 15.08837979 23899"},{"TIME_SYSTEM":"UTC","MEAN_ELEMENT_THEORY":"SGP4","OBJECT_ID":"2022-104AB","NORAD_CAT_ID":"53613","MEAN_ANOMALY":"285.1322","OBJECT_TYPE":"PAYLOAD","EPOCH":"2023-01-27T21:11:15.873504","ECCENTRICITY":"0.00011400","ARG_OF_PERICENTER":"74.9796","MEAN_MOTION_DDOT":"0.0000000000000","TLE_LINE1":"1 53613U 22104AB  23027.88282261 -.00000300  00000-0 -77440-6 0  9991","PERIOD":"95.438","ELEMENT_SET_NO":"999","CENTER_NAME":"EARTH","MEAN_MOTION_DOT":"-0.00000300","RCS_SIZE":"LARGE","GP_ID":"223841234","CLASSIFICATION_TYPE":"U","OBJECT_NAME":"STARLINK-4655","SEMIMAJOR_AXIS":"6917.898","PERIAPSIS":"538.975","COUNTRY_CODE":"US","EPHEMERIS_TYPE":"0","BSTAR":"-0.00000077440000","REF_FRAME":"TEME","REV_AT_EPOCH":"2401","APOAPSIS":"540.552","INCLINATION":"53.2175","MEAN_MOTION":"15.08834098","LAUNCH_DATE":"2022-08-28","FILE":"3763218","DECAY_DATE":null,"TLE_LINE2":"2 53613  53.2175 297.5966 0001140  74.9796 285.1322 15.08834098 24011","SITE":"AFETR","RA_OF_ASC_NODE":"297.5966"},{"APOAPSIS":"540.413","REV_AT_EPOCH":"2426","LAUNCH_DATE":"2022-08-28","INCLINATION":"53.2162","MEAN_MOTION":"15.08832382","DECAY_DATE":null,"FILE":"3763218","SITE":"AFETR","TLE_LINE2":"2 53616  53.2162 287.4387 0000931  98.3209 261.7889 15.08832382 24260","RA_OF_ASC_NODE":"287.4387","PERIAPSIS":"539.125","OBJECT_NAME":"STARLINK-4605","SEMIMAJOR_AXIS":"6917.904","COUNTRY_CODE":"US","BSTAR":"0.00021145000000","REF_FRAME":"TEME","EPHEMERIS_TYPE":"0","RCS_SIZE":"LARGE","MEAN_MOTION_DOT":"0.00003078","GP_ID":"223840986","CLASSIFICATION_TYPE":"U","OBJECT_ID":"2022-104AE","TIME_SYSTEM":"UTC","MEAN_ELEMENT_THEORY":"SGP4","MEAN_ANOMALY":"261.7889","OBJECT_TYPE":"PAYLOAD","NORAD_CAT_ID":"53616","ARG_OF_PERICENTER":"98.3209","ECCENTRICITY":"0.00009310","MEAN_MOTION_DDOT":"0.0000000000000","EPOCH":"2023-01-27T21:13:56.549856","CENTER_NAME":"EARTH","TLE_LINE1":"1 53616U 22104AE  23027.88468229  .00003078  00000-0  21145-3 0  9995","PERIOD":"95.438","ELEMENT_SET_NO":"999"},{"EPOCH":"2023-01-27T03:26:05.039232","MEAN_MOTION_DDOT":"0.0000000000000","ARG_OF_PERICENTER":"82.4053","ECCENTRICITY":"0.00011750","ELEMENT_SET_NO":"999","PERIOD":"95.437","TLE_LINE1":"1 53617U 22104AF  23027.14311388  .00001991  00000-0  14307-3 0  9992","CENTER_NAME":"EARTH","TIME_SYSTEM":"UTC","MEAN_ELEMENT_THEORY":"SGP4","OBJECT_ID":"2022-104AF","NORAD_CAT_ID":"53617","OBJECT_TYPE":"PAYLOAD","MEAN_ANOMALY":"277.7072","CLASSIFICATION_TYPE":"U","MEAN_MOTION_DOT":"0.00001991","RCS_SIZE":"LARGE","GP_ID":"223808312","COUNTRY_CODE":"US","EPHEMERIS_TYPE":"0","REF_FRAME":"TEME","BSTAR":"0.00014307000000","SEMIMAJOR_AXIS":"6917.840","OBJECT_NAME":"STARLINK-4601","PERIAPSIS":"538.892","FILE":"3762956","DECAY_DATE":null,"RA_OF_ASC_NODE":"300.7979","TLE_LINE2":"2 53617  53.2193 300.7979 0001175  82.4053 277.7072 15.08853325 23904","SITE":"AFETR","APOAPSIS":"540.518","REV_AT_EPOCH":"2390","MEAN_MOTION":"15.08853325","INCLINATION":"53.2193","LAUNCH_DATE":"2022-08-28"},{"PERIAPSIS":"538.715","OBJECT_NAME":"STARLINK-4604","SEMIMAJOR_AXIS":"6917.804","COUNTRY_CODE":"US","BSTAR":"0.00111800000000","REF_FRAME":"TEME","EPHEMERIS_TYPE":"0","APOAPSIS":"540.623","REV_AT_EPOCH":"2333","LAUNCH_DATE":"2022-08-28","MEAN_MOTION":"15.08865068","INCLINATION":"53.2170","DECAY_DATE":null,"FILE":"3762956","TLE_LINE2":"2 53618  53.2170 300.4342 0001379  79.8240 280.2908 15.08865068 23336","SITE":"AFETR","RA_OF_ASC_NODE":"300.4342","OBJECT_ID":"2022-104AG","TIME_SYSTEM":"UTC","MEAN_ELEMENT_THEORY":"SGP4","MEAN_ANOMALY":"280.2908","OBJECT_TYPE":"PAYLOAD","NORAD_CAT_ID":"53618","ECCENTRICITY":"0.00013790","ARG_OF_PERICENTER":"79.8240","MEAN_MOTION_DDOT":"0.0000000000000","EPOCH":"2023-01-27T04:45:33.342912","CENTER_NAME":"EARTH","TLE_LINE1":"1 53618U 22104AG  23027.19830258  .00017562  00000-0  11180-2 0  9996","PERIOD":"95.436","ELEMENT_SET_NO":"999","RCS_SIZE":"LARGE","MEAN_MOTION_DOT":"0.00017562","GP_ID":"223808062","CLASSIFICATION_TYPE":"U"},{"GP_ID":"223808810","MEAN_MOTION_DOT":"0.00013154","RCS_SIZE":"LARGE","CLASSIFICATION_TYPE":"U","NORAD_CAT_ID":"53619","MEAN_ANOMALY":"276.9187","OBJECT_TYPE":"PAYLOAD","MEAN_ELEMENT_THEORY":"SGP4","TIME_SYSTEM":"UTC","OBJECT_ID":"2022-104AH","TLE_LINE1":"1 53619U 22104AH  23027.13943647  .00013154  00000-0  84268-3 0  9999","ELEMENT_SET_NO":"999","PERIOD":"95.437","CENTER_NAME":"EARTH","EPOCH":"2023-01-27T03:20:47.311008","ECCENTRICITY":"0.00008030","ARG_OF_PERICENTER":"83.1896","MEAN_MOTION_DDOT":"0.0000000000000","MEAN_MOTION":"15.08855037","INCLINATION":"53.2167","LAUNCH_DATE":"2022-08-28","REV_AT_EPOCH":"2390","APOAPSIS":"540.255","SITE":"AFETR","TLE_LINE2":"2 53619  53.2167 300.7698 0000803  83.1896 276.9187 15.08855037 23905","RA_OF_ASC_NODE":"300.7698","FILE":"3762956","DECAY_DATE":null,"OBJECT_NAME":"STARLINK-4609","SEMIMAJOR_AXIS":"6917.834","PERIAPSIS":"539.144","EPHEMERIS_TYPE":"0","BSTAR":"0.00084268000000","REF_FRAME":"TEME","COUNTRY_CODE":"US"},{"TLE_LINE2":"2 53620  53.2165 297.4162 0000998 129.2886 230.8195 15.08844513 24129","SITE":"AFETR","RA_OF_ASC_NODE":"297.4162","FILE":"3763218","DECAY_DATE":null,"MEAN_MOTION":"15.08844513","INCLINATION":"53.2165","LAUNCH_DATE":"2022-08-28","APOAPSIS":"540.422","REV_AT_EPOCH":"2412","EPHEMERIS_TYPE":"0","BSTAR":"0.00140110000000","REF_FRAME":"TEME","COUNTRY_CODE":"US","OBJECT_NAME":"STARLINK-4615","SEMIMAJOR_AXIS":"6917.867","PERIAPSIS":"539.041","CLASSIFICATION_TYPE":"U","GP_ID":"223841483","MEAN_MOTION_DOT":"0.00022084","RCS_SIZE":"MEDIUM","TLE_LINE1":"1 53620U 22104AJ  23027.85334008  .00022084  00000-0  14011-2 0  9995","ELEMENT_SET_NO":"999","PERIOD":"95.437","CENTER_NAME":"EARTH","EPOCH":"2023-01-27T20:28:48.582912","ARG_OF_PERICENTER":"129.2886","ECCENTRICITY":"0.00009980","MEAN_MOTION_DDOT":"0.0000000000000","NORAD_CAT_ID":"53620","MEAN_ANOMALY":"230.8195","OBJECT_TYPE":"PAYLOAD","TIME_SYSTEM":"UTC","MEAN_ELEMENT_THEORY":"SGP4","OBJECT_ID":"2022-104AJ"},{"GP_ID":"223840240","RCS_SIZE":"LARGE","MEAN_MOTION_DOT":"0.00002432","CLASSIFICATION_TYPE":"U","OBJECT_TYPE":"PAYLOAD","MEAN_ANOMALY":"307.2666","NORAD_CAT_ID":"53621","OBJECT_ID":"2022-104AK","TIME_SYSTEM":"UTC","MEAN_ELEMENT_THEORY":"SGP4","CENTER_NAME":"EARTH","ELEMENT_SET_NO":"999","PERIOD":"95.438","TLE_LINE1":"1 53621U 22104AK  23027.86439843  .00002432  00000-0  17088-3 0  9993","MEAN_MOTION_DDOT":"0.0000000000000","ARG_OF_PERICENTER":"52.8475","ECCENTRICITY":"0.00016390","EPOCH":"2023-01-27T20:44:44.024352","LAUNCH_DATE":"2022-08-28","MEAN_MOTION":"15.08835178","INCLINATION":"53.2162","REV_AT_EPOCH":"2401","APOAPSIS":"540.894","RA_OF_ASC_NODE":"297.4832","TLE_LINE2":"2 53621  53.2162 297.4832 0001639  52.8475 307.2666 15.08835178 24016","SITE":"AFETR","DECAY_DATE":null,"FILE":"3763218","PERIAPSIS":"538.626","SEMIMAJOR_AXIS":"6917.895","OBJECT_NAME":"STARLINK-4608","REF_FRAME":"TEME","BSTAR":"0.00017088000000","EPHEMERIS_TYPE":"0","COUNTRY_CODE":"US"}];
